#aV2024  5  4  0  0  0.00000000     288 DD+AD WGS84 FIT  NGA
## 2312 518400.00000000   300.00000000 60434 0.0000000000000
+   31     2  3  4  5  6  7  8  9 10 11 12 13 14 15 16 17 18
+         19 20 21 22 23 24 25 26 27 28 29 30 31 32  0  0  0
+          0  0  0  0  0  0  0  0  0  0  0  0  0  0  0  0  0
+          0  0  0  0  0  0  0  0  0  0  0  0  0  0  0  0  0
+          0  0  0  0  0  0  0  0  0  0  0  0  0  0  0  0  0
++         2  2  2  2  2  2  2  2  2  2  2  2  2  2  2  2  2
++         2  2  2  2  2  2  2  2  2  2  2  2  2  2  0  0  0
++         0  0  0  0  0  0  0  0  0  0  0  0  0  0  0  0  0
++         0  0  0  0  0  0  0  0  0  0  0  0  0  0  0  0  0
++         0  0  0  0  0  0  0  0  0  0  0  0  0  0  0  0  0
%c cc cc ccc ccc cccc cccc cccc cccc ccccc ccccc ccccc ccccc
%c cc cc ccc ccc cccc cccc cccc cccc ccccc ccccc ccccc ccccc
%f  0.0000000  0.000000000  0.00000000000  0.000000000000000
%f  0.0000000  0.000000000  0.00000000000  0.000000000000000
%i    0    0    0    0      0      0      0      0         0
%i    0    0    0    0      0      0      0      0         0
/*      NGA, ST. LOUIS,MO.                                  
/*   EPHEMERIS COMPUTED FROM 2 DAYS OF DATA                 
/*   EPOCHA v9 SMOOTHER                                     
/*   G2296 IERS2010 SATIGS SATAPC                           
*  2024  5  4  9 40  0.00000000
P  2  -3794.533732 -14370.195415 -21539.287228   -442.244101                    
V  2  27893.254453  -5743.337211   -784.564369      0.066510                    
P  3 -11689.234201 -23025.781626  -6643.780056    345.465670                    
V  3   6381.034959   5451.332597 -30705.265690      0.200444                    
P  4  -1522.972425 -21665.881364  15215.745002    353.429171                    
V  4  10018.502787 -16658.385429 -22873.464165      0.085366                    
P  5    145.890435  19380.544418  17942.160137   -171.469830                    
V  5 -15948.805869 -16845.932293  18234.832530     -0.013763                    
P  6 -25755.051335   5429.333805   4043.831780    290.493833                    
V  6  -5185.694466  -1215.850993 -31771.861004     -0.190399                    
P  7 -22145.604274  -7191.225457  13711.486858   -121.464315                    
V  7  16056.819037  -3939.385946  24337.107500     -0.082900                    
P  8   4848.026627 -25112.201826  -6384.886072    159.420326                    
V  8   5954.465037  -6354.538682  30441.496237      0.212569                    
P  9 -11559.856169 -11089.748729  21098.026562    183.748941                    
V  9  10610.324920 -24830.727299  -7262.869815      0.139298                    
P 10  18380.992636   3735.997346 -18727.466657    -17.619359                    
V 10  13653.985331  19813.460345  16854.834438     -0.058240                    
P 11 -18109.088060  11936.122237  15319.496974   -653.539804                    
V 11 -19507.829607   -488.055914 -22761.553069     -0.097497                    
P 12   8801.450637  23852.681716  -8062.000773   -502.335595                    
V 12  -7421.299725  -6907.697631 -29532.534211     -0.033693                    
P 13 -13577.022668  22679.194382   -158.085753    647.853623                    
V 13  -2286.971423  -1434.424780  32131.299467      0.029424                    
P 14 -19698.056598  -7341.805281 -16324.443925    392.309347                    
V 14 -10406.904321 -18060.431660  20435.482940      0.093912                    
P 15  -1464.724186  25676.411628  -6699.270727    155.335305                    
V 15  -5403.494359   6825.703962  29727.395728      0.040963                    
P 16   5519.863646 -16704.731634  19422.660140   -300.504119                    
V 16  14796.569410  20857.972001  13940.238726      0.097571                    
P 17 -16805.972394   2932.209290 -19982.002279    708.778923                    
V 17  10836.411689 -23919.139173 -12213.835482     -0.023308                    
P 18  22594.349492   6308.709331  12651.598234   -605.231314                    
V 18 -15681.068127   3427.426220  26131.209590     -0.061033                    
P 19 -18400.415786  11282.750528 -15397.965472    477.248430                    
V 19   7637.140906 -17912.957515 -22892.740619      0.053415                    
P 20  -9163.414886  12463.828488  21659.156355    377.828459                    
V 20 -20121.028412 -18558.013391   2025.102320     -0.013881                    
P 21   1572.474729 -15347.791379 -21039.145472    123.620385                    
V 21  27528.265359  -4847.885549   6468.463579     -0.022148                    
P 22 -16408.740982    529.798274 -20396.000680     -8.791056                    
V 22 -13252.656408 -23464.277987  10134.415034     -0.054083                    
P 23  20087.189130  14289.632700 -10118.517878    216.899170                    
V 23   6530.641195  11155.527170  28462.055168      0.095075                    
P 24   1933.873804  15913.712377 -21576.542777   -466.298190                    
V 24 -26016.578564   5331.211595   2046.264432     -0.038238                    
P 25  16534.455099  20960.945385    211.855288    495.083015                    
V 25  -1886.549238   2322.277448 -31363.162976      0.007260                    
P 26  15048.908882  -6359.955769  20837.387551    157.811343                    
V 26  17374.070454  20503.284274  -5879.820176     -0.053982                    
P 27  12719.888064 -22578.374960   4371.914061    -22.257853                    
V 27    573.748264   6718.832983  31410.347640     -0.019968                    
P 28  26074.580930  -4895.281855   1213.539339   -229.577213                    
V 28   1966.272283   2529.618020 -31722.830168     -0.158721                    
P 29   8584.110854  14154.730274  20689.689705   -599.686492                    
V 29 -12922.826962  23027.509925 -10473.840632      0.013998                    
P 30 -26474.858165    484.132026   3623.311700   -395.634397                    
V 30   3981.346785  -3820.458875  30565.200664      0.057554                    
P 31  22109.953366 -10031.386345  11008.805455   -227.919579                    
V 31  14336.898632    954.089529 -27006.392522      0.000833                    
P 32  17019.508748  -6145.997680 -19160.455790   -618.421069                    
V 32  -8155.280907  23518.768550 -14822.128280      0.000653                    
EOF
